STARLINK-35775          
1 67038U 25294J   25356.83335647 -.01888772  00000+0 -10648-1 0  9998
2 67038  43.0001 120.3477 0001385 279.5206 323.9884 15.81236907  1848
STARLINK-35705          
1 67039U 25294K   25356.83335647 -.01886260  00000+0 -10641-1 0  9992
2 67039  43.0001 120.3370 0001413 278.2854 329.6035 15.81217516  1732
STARLINK-35786          
1 67040U 25294L   25356.83335647 -.01891299  00000+0 -10669-1 0  9992
2 67040  43.0003 120.3425 0001457 282.7639 323.0188 15.81226423  1730
STARLINK-35765          
1 67041U 25294M   25356.83335647 -.01885965  00000+0 -10642-1 0  9997
2 67041  43.0002 120.3318 0001503 282.6006 327.3280 15.81210756  1732
STARLINK-35773          
1 67042U 25294N   25356.83335647 -.01895767  00000+0 -10709-1 0  9993
2 67042  43.0000 120.3262 0001371 276.9466 335.1872 15.81206659  1920
STARLINK-35901          
1 67043U 25294P   25356.58335648 -.01953780  00000+0 -10540-1 0  9990
2 67043  42.9998 121.8529 0001361 275.1011 353.9188 15.82277171  1884
STARLINK-35884          
1 67044U 25294Q   25356.58335648 -.01951041  00000+0 -10529-1 0  9996
2 67044  43.0000 121.8474 0001296 275.8571 355.3014 15.82266488  1888
STARLINK-35891          
1 67045U 25294R   25356.58335648 -.01954769  00000+0 -10562-1 0  9994
2 67045  42.9998 121.8409 0001266 274.2355 359.4246 15.82247529  1800
STARLINK-35721          
1 67046U 25294S   25356.58335648 -.01953694  00000+0 -10564-1 0  9993
2 67046  43.0000 121.8353 0001178 274.0529   1.8969 15.82231831  1885
STARLINK-35779          
1 67047U 25294T   25356.58335648 -.01946434  00000+0 -10531-1 0  9992
2 67047  42.9998 121.8293 0001169 272.0458   6.4022 15.82207819  1691
STARLINK-35905          
1 67048U 25294U   25356.58335648 -.01942013  00000+0 -10507-1 0  9995
2 67048  43.0000 121.8242 0001077 275.3752   5.0513 15.82200682  1807
STARLINK-35877          
1 67049U 25294V   25356.58335648 -.01950394  00000+0 -10563-1 0  9999
2 67049  43.0002 121.8183 0001252 269.7132  13.1142 15.82191151  1884
