CCSDS_OMM_VERS = 2.0
CREATION_DATE  = 
ORIGINATOR     = 

OBJECT_NAME    = STARLINK-35775
OBJECT_ID      = 2025-294J
CENTER_NAME    = EARTH
REF_FRAME      = TEME
TIME_SYSTEM    = UTC
MEAN_ELEMENT_THEORY = SGP/SGP4

EPOCH          = 2025-12-22T20:00:01.999008
MEAN_MOTION    = 15.81236907
ECCENTRICITY   = .0001385
INCLINATION    = 43.0001
RA_OF_ASC_NODE = 120.3477
ARG_OF_PERICENTER = 279.5206
MEAN_ANOMALY   = 323.9884

EPHEMERIS_TYPE = 0
CLASSIFICATION_TYPE = U
NORAD_CAT_ID   = 67038
ELEMENT_SET_NO = 999
REV_AT_EPOCH   = 184
BSTAR          = -.10648E-1
MEAN_MOTION_DOT = -.1888772E-1
MEAN_MOTION_DDOT = 0

CCSDS_OMM_VERS = 2.0
CREATION_DATE  = 
ORIGINATOR     = 

OBJECT_NAME    = STARLINK-35705
OBJECT_ID      = 2025-294K
CENTER_NAME    = EARTH
REF_FRAME      = TEME
TIME_SYSTEM    = UTC
MEAN_ELEMENT_THEORY = SGP/SGP4

EPOCH          = 2025-12-22T20:00:01.999008
MEAN_MOTION    = 15.81217516
ECCENTRICITY   = .0001413
INCLINATION    = 43.0001
RA_OF_ASC_NODE = 120.3370
ARG_OF_PERICENTER = 278.2854
MEAN_ANOMALY   = 329.6035

EPHEMERIS_TYPE = 0
CLASSIFICATION_TYPE = U
NORAD_CAT_ID   = 67039
ELEMENT_SET_NO = 999
REV_AT_EPOCH   = 173
BSTAR          = -.10641E-1
MEAN_MOTION_DOT = -.188626E-1
MEAN_MOTION_DDOT = 0

CCSDS_OMM_VERS = 2.0
CREATION_DATE  = 
ORIGINATOR     = 

OBJECT_NAME    = STARLINK-35786
OBJECT_ID      = 2025-294L
CENTER_NAME    = EARTH
REF_FRAME      = TEME
TIME_SYSTEM    = UTC
MEAN_ELEMENT_THEORY = SGP/SGP4

EPOCH          = 2025-12-22T20:00:01.999008
MEAN_MOTION    = 15.81226423
ECCENTRICITY   = .0001457
INCLINATION    = 43.0003
RA_OF_ASC_NODE = 120.3425
ARG_OF_PERICENTER = 282.7639
MEAN_ANOMALY   = 323.0188

EPHEMERIS_TYPE = 0
CLASSIFICATION_TYPE = U
NORAD_CAT_ID   = 67040
ELEMENT_SET_NO = 999
REV_AT_EPOCH   = 173
BSTAR          = -.10669E-1
MEAN_MOTION_DOT = -.1891299E-1
MEAN_MOTION_DDOT = 0

CCSDS_OMM_VERS = 2.0
CREATION_DATE  = 
ORIGINATOR     = 

OBJECT_NAME    = STARLINK-35765
OBJECT_ID      = 2025-294M
CENTER_NAME    = EARTH
REF_FRAME      = TEME
TIME_SYSTEM    = UTC
MEAN_ELEMENT_THEORY = SGP/SGP4

EPOCH          = 2025-12-22T20:00:01.999008
MEAN_MOTION    = 15.81210756
ECCENTRICITY   = .0001503
INCLINATION    = 43.0002
RA_OF_ASC_NODE = 120.3318
ARG_OF_PERICENTER = 282.6006
MEAN_ANOMALY   = 327.3280

EPHEMERIS_TYPE = 0
CLASSIFICATION_TYPE = U
NORAD_CAT_ID   = 67041
ELEMENT_SET_NO = 999
REV_AT_EPOCH   = 173
BSTAR          = -.10642E-1
MEAN_MOTION_DOT = -.1885965E-1
MEAN_MOTION_DDOT = 0

CCSDS_OMM_VERS = 2.0
CREATION_DATE  = 
ORIGINATOR     = 

OBJECT_NAME    = STARLINK-35773
OBJECT_ID      = 2025-294N
CENTER_NAME    = EARTH
REF_FRAME      = TEME
TIME_SYSTEM    = UTC
MEAN_ELEMENT_THEORY = SGP/SGP4

EPOCH          = 2025-12-22T20:00:01.999008
MEAN_MOTION    = 15.81206659
ECCENTRICITY   = .0001371
INCLINATION    = 43.0000
RA_OF_ASC_NODE = 120.3262
ARG_OF_PERICENTER = 276.9466
MEAN_ANOMALY   = 335.1872

EPHEMERIS_TYPE = 0
CLASSIFICATION_TYPE = U
NORAD_CAT_ID   = 67042
ELEMENT_SET_NO = 999
REV_AT_EPOCH   = 192
BSTAR          = -.10709E-1
MEAN_MOTION_DOT = -.1895767E-1
MEAN_MOTION_DDOT = 0

CCSDS_OMM_VERS = 2.0
CREATION_DATE  = 
ORIGINATOR     = 

OBJECT_NAME    = STARLINK-35901
OBJECT_ID      = 2025-294P
CENTER_NAME    = EARTH
REF_FRAME      = TEME
TIME_SYSTEM    = UTC
MEAN_ELEMENT_THEORY = SGP/SGP4

EPOCH          = 2025-12-22T14:00:01.999872
MEAN_MOTION    = 15.82277171
ECCENTRICITY   = .00013616
INCLINATION    = 42.9998
RA_OF_ASC_NODE = 121.8529
ARG_OF_PERICENTER = 275.1011
MEAN_ANOMALY   = 353.9188

EPHEMERIS_TYPE = 0
CLASSIFICATION_TYPE = U
NORAD_CAT_ID   = 67043
ELEMENT_SET_NO = 999
REV_AT_EPOCH   = 188
BSTAR          = -.1054047E-1
MEAN_MOTION_DOT = -.195378E-1
MEAN_MOTION_DDOT = 0

CCSDS_OMM_VERS = 2.0
CREATION_DATE  = 
ORIGINATOR     = 

OBJECT_NAME    = STARLINK-35884
OBJECT_ID      = 2025-294Q
CENTER_NAME    = EARTH
REF_FRAME      = TEME
TIME_SYSTEM    = UTC
MEAN_ELEMENT_THEORY = SGP/SGP4

EPOCH          = 2025-12-22T14:00:01.999872
MEAN_MOTION    = 15.82266488
ECCENTRICITY   = .00012964
INCLINATION    = 43.0000
RA_OF_ASC_NODE = 121.8474
ARG_OF_PERICENTER = 275.8571
MEAN_ANOMALY   = 355.3014

EPHEMERIS_TYPE = 0
CLASSIFICATION_TYPE = U
NORAD_CAT_ID   = 67044
ELEMENT_SET_NO = 999
REV_AT_EPOCH   = 188
BSTAR          = -.10529156E-1
MEAN_MOTION_DOT = -.1951041E-1
MEAN_MOTION_DDOT = 0

CCSDS_OMM_VERS = 2.0
CREATION_DATE  = 
ORIGINATOR     = 

OBJECT_NAME    = STARLINK-35891
OBJECT_ID      = 2025-294R
CENTER_NAME    = EARTH
REF_FRAME      = TEME
TIME_SYSTEM    = UTC
MEAN_ELEMENT_THEORY = SGP/SGP4

EPOCH          = 2025-12-22T14:00:01.999872
MEAN_MOTION    = 15.82247529
ECCENTRICITY   = .0001266
INCLINATION    = 42.9998
RA_OF_ASC_NODE = 121.8409
ARG_OF_PERICENTER = 274.2355
MEAN_ANOMALY   = 359.4246

EPHEMERIS_TYPE = 0
CLASSIFICATION_TYPE = U
NORAD_CAT_ID   = 67045
ELEMENT_SET_NO = 999
REV_AT_EPOCH   = 180
BSTAR          = -.10562126E-1
MEAN_MOTION_DOT = -.1954769E-1
MEAN_MOTION_DDOT = 0

CCSDS_OMM_VERS = 2.0
CREATION_DATE  = 
ORIGINATOR     = 

OBJECT_NAME    = STARLINK-35721
OBJECT_ID      = 2025-294S
CENTER_NAME    = EARTH
REF_FRAME      = TEME
TIME_SYSTEM    = UTC
MEAN_ELEMENT_THEORY = SGP/SGP4

EPOCH          = 2025-12-22T14:00:01.999872
MEAN_MOTION    = 15.82231831
ECCENTRICITY   = .00011786
INCLINATION    = 43.0000
RA_OF_ASC_NODE = 121.8353
ARG_OF_PERICENTER = 274.0529
MEAN_ANOMALY   = 1.8969

EPHEMERIS_TYPE = 0
CLASSIFICATION_TYPE = U
NORAD_CAT_ID   = 67046
ELEMENT_SET_NO = 999
REV_AT_EPOCH   = 188
BSTAR          = -.10563841E-1
MEAN_MOTION_DOT = -.1953694E-1
MEAN_MOTION_DDOT = 0

CCSDS_OMM_VERS = 2.0
CREATION_DATE  = 
ORIGINATOR     = 

OBJECT_NAME    = STARLINK-35779
OBJECT_ID      = 2025-294T
CENTER_NAME    = EARTH
REF_FRAME      = TEME
TIME_SYSTEM    = UTC
MEAN_ELEMENT_THEORY = SGP/SGP4

EPOCH          = 2025-12-22T14:00:01.999872
MEAN_MOTION    = 15.82207819
ECCENTRICITY   = .00011695
INCLINATION    = 42.9998
RA_OF_ASC_NODE = 121.8293
ARG_OF_PERICENTER = 272.0458
MEAN_ANOMALY   = 6.4022

EPHEMERIS_TYPE = 0
CLASSIFICATION_TYPE = U
NORAD_CAT_ID   = 67047
ELEMENT_SET_NO = 999
REV_AT_EPOCH   = 169
BSTAR          = -.10530545E-1
MEAN_MOTION_DOT = -.1946434E-1
MEAN_MOTION_DDOT = 0

CCSDS_OMM_VERS = 2.0
CREATION_DATE  = 
ORIGINATOR     = 

OBJECT_NAME    = STARLINK-35905
OBJECT_ID      = 2025-294U
CENTER_NAME    = EARTH
REF_FRAME      = TEME
TIME_SYSTEM    = UTC
MEAN_ELEMENT_THEORY = SGP/SGP4

EPOCH          = 2025-12-22T14:00:01.999872
MEAN_MOTION    = 15.82200682
ECCENTRICITY   = .00010772
INCLINATION    = 43.0000
RA_OF_ASC_NODE = 121.8242
ARG_OF_PERICENTER = 275.3752
MEAN_ANOMALY   = 5.0513

EPHEMERIS_TYPE = 0
CLASSIFICATION_TYPE = U
NORAD_CAT_ID   = 67048
ELEMENT_SET_NO = 999
REV_AT_EPOCH   = 180
BSTAR          = -.1050706E-1
MEAN_MOTION_DOT = -.1942013E-1
MEAN_MOTION_DDOT = 0

CCSDS_OMM_VERS = 2.0
CREATION_DATE  = 
ORIGINATOR     = 

OBJECT_NAME    = STARLINK-35877
OBJECT_ID      = 2025-294V
CENTER_NAME    = EARTH
REF_FRAME      = TEME
TIME_SYSTEM    = UTC
MEAN_ELEMENT_THEORY = SGP/SGP4

EPOCH          = 2025-12-22T14:00:01.999872
MEAN_MOTION    = 15.82191151
ECCENTRICITY   = .00012522
INCLINATION    = 43.0002
RA_OF_ASC_NODE = 121.8183
ARG_OF_PERICENTER = 269.7132
MEAN_ANOMALY   = 13.1142

EPHEMERIS_TYPE = 0
CLASSIFICATION_TYPE = U
NORAD_CAT_ID   = 67049
ELEMENT_SET_NO = 999
REV_AT_EPOCH   = 188
BSTAR          = -.10563146E-1
MEAN_MOTION_DOT = -.1950394E-1
MEAN_MOTION_DDOT = 0

